[{"OBJECT_NAME":"POLAR SCOUT YUKON","OBJECT_ID":"2018-099BC","EPOCH":"2026-03-09T17:15:46.142784","MEAN_MOTION":15.33775706,"ECCENTRICITY":0.0003933,"INCLINATION":97.4761,"RA_OF_ASC_NODE":140.0523,"ARG_OF_PERICENTER":328.7158,"MEAN_ANOMALY":31.385,"EPHEMERIS_TYPE":0,"CLASSIFICATION_TYPE":"U","NORAD_CAT_ID":43808,"ELEMENT_SET_NO":999,"REV_AT_EPOCH":39824,"BSTAR":0.00070317967,"MEAN_MOTION_DOT":0.00022935,"MEAN_MOTION_DDOT":0},{"OBJECT_NAME":"UNISAT-7","OBJECT_ID":"2021-022P","EPOCH":"2026-03-09T16:28:31.560096","MEAN_MOTION":15.37617151,"ECCENTRICITY":0.00117035,"INCLINATION":97.3969,"RA_OF_ASC_NODE":332.7353,"ARG_OF_PERICENTER":74.8463,"MEAN_ANOMALY":285.4075,"EPHEMERIS_TYPE":0,"CLASSIFICATION_TYPE":"U","NORAD_CAT_ID":47945,"ELEMENT_SET_NO":999,"REV_AT_EPOCH":27455,"BSTAR":0.000470835,"MEAN_MOTION_DOT":0.00017358,"MEAN_MOTION_DDOT":0}]
